[{"OBJECT_NAME":"HERMES-3","OBJECT_ID":"2025-052BR","EPOCH":"2026-03-09T22:30:01.073952","MEAN_MOTION":15.30039786,"ECCENTRICITY":0.00079928,"INCLINATION":97.3987,"RA_OF_ASC_NODE":324.6131,"ARG_OF_PERICENTER":112.9583,"MEAN_ANOMALY":247.2502,"EPHEMERIS_TYPE":0,"CLASSIFICATION_TYPE":"U","NORAD_CAT_ID":63835,"ELEMENT_SET_NO":999,"REV_AT_EPOCH":5486,"BSTAR":0.0006995793,"MEAN_MOTION_DOT":0.00020316,"MEAN_MOTION_DDOT":0},{"OBJECT_NAME":"STARLINK-36478","OBJECT_ID":"2026-003T","EPOCH":"2026-03-09T11:12:39.787488","MEAN_MOTION":15.27580731,"ECCENTRICITY":0.00012155,"INCLINATION":42.9982,"RA_OF_ASC_NODE":227.9872,"ARG_OF_PERICENTER":264.7832,"MEAN_ANOMALY":95.2881,"EPHEMERIS_TYPE":0,"CLASSIFICATION_TYPE":"U","NORAD_CAT_ID":67351,"ELEMENT_SET_NO":999,"REV_AT_EPOCH":879,"BSTAR":0.00096566918,"MEAN_MOTION_DOT":0.00026407,"MEAN_MOTION_DDOT":0}]
